*******************************************************************************
Ephemeris / WWW_USER Mon Mar 24 07:01:42 2025 Pasadena, USA      / Horizons    
*******************************************************************************
Target body name: Triton (801)                    {source: nep097_merged}
Center body name: Earth (399)                     {source: nep097_merged}
Center-site name: Mauna Kea
*******************************************************************************
Start time      : A.D. 2018-Nov-28 03:51:00.0000 UT      
Stop  time      : A.D. 2018-Nov-28 16:28:00.0000 UT      
Step-size       : 1 minutes
*******************************************************************************
Target pole/equ : IAU_TRITON                      {East-longitude positive}
Target radii    : 1352.6, 1352.6, 1352.6 km       {Equator_a, b, pole_c}       
Center geodetic : 204.5278, 19.8260847, 4.21024   {E-lon(deg),Lat(deg),Alt(km)}
Center cylindric: 204.5278, 6006.35451, 2151.0229 {E-lon(deg),Dxy(km),Dz(km)}
Center pole/equ : ITRF93                          {East-longitude positive}
Center radii    : 6378.137, 6378.137, 6356.752 km {Equator_a, b, pole_c}       
Target primary  : Neptune
Vis. interferer : MOON (R_eq= 1737.400) km        {source: DE441}
Rel. light bend : Sun                             {source: nep097_merged}
Rel. lght bnd GM: 1.3271E+11 km^3/s^2                                          
Atmos refraction: NO (AIRLESS)
RA format       : HMS
Time format     : CAL 
Calendar mode   : Mixed Julian/Gregorian
RTS-only print  : NO       
EOP file        : eop.250321.p250617                                           
EOP coverage    : DATA-BASED 1962-JAN-20 TO 2025-MAR-21. PREDICTS-> 2025-JUN-16
Units conversion: 1 au= 149597870.700 km, c= 299792.458 km/s, 1 day= 86400.0 s 
Table cut-offs 1: Elevation (-90.0deg=NO ),Airmass (>38.000=NO), Daylight (YES)
Table cut-offs 2: Solar elongation (  0.0,180.0=NO ),Local Hour Angle( 0.0=NO )
Table cut-offs 3: RA/DEC angular rate (     0.0=NO )                           
*******************************************************************************
 Date__(UT)__HR:MN     R.A._________(ICRF)_________DEC
******************************************************
$$SOE
 2018-Nov-28 13:11  m  23 00 28.584790 -07 24 51.46964
 2018-Nov-28 13:12  m  23 00 28.585697 -07 24 51.46703
 2018-Nov-28 13:13  m  23 00 28.586604 -07 24 51.46442
 2018-Nov-28 13:14  m  23 00 28.587511 -07 24 51.46182
 2018-Nov-28 13:15  m  23 00 28.588418 -07 24 51.45923
 2018-Nov-28 13:16  m  23 00 28.589325 -07 24 51.45665
 2018-Nov-28 13:17  m  23 00 28.590233 -07 24 51.45408
 2018-Nov-28 13:18  m  23 00 28.591140 -07 24 51.45151
 2018-Nov-28 13:19  m  23 00 28.592048 -07 24 51.44896
 2018-Nov-28 13:20  m  23 00 28.592956 -07 24 51.44641
 2018-Nov-28 13:21  m  23 00 28.593864 -07 24 51.44387
 2018-Nov-28 13:22  m  23 00 28.594772 -07 24 51.44133
 2018-Nov-28 13:23  m  23 00 28.595680 -07 24 51.43881
 2018-Nov-28 13:24  m  23 00 28.596589 -07 24 51.43629
 2018-Nov-28 13:25  m  23 00 28.597497 -07 24 51.43378
 2018-Nov-28 13:26  m  23 00 28.598406 -07 24 51.43128
 2018-Nov-28 13:27  m  23 00 28.599315 -07 24 51.42879
 2018-Nov-28 13:28  m  23 00 28.600224 -07 24 51.42631
 2018-Nov-28 13:29  m  23 00 28.601133 -07 24 51.42383
 2018-Nov-28 13:30  m  23 00 28.602042 -07 24 51.42136
 2018-Nov-28 13:31  m  23 00 28.602951 -07 24 51.41890
 2018-Nov-28 13:32  m  23 00 28.603861 -07 24 51.41645
 2018-Nov-28 13:33  m  23 00 28.604771 -07 24 51.41401
 2018-Nov-28 13:34  m  23 00 28.605680 -07 24 51.41158
 2018-Nov-28 13:35  m  23 00 28.606590 -07 24 51.40915
 2018-Nov-28 13:36  m  23 00 28.607500 -07 24 51.40673
 2018-Nov-28 13:37  m  23 00 28.608410 -07 24 51.40432
 2018-Nov-28 13:38  m  23 00 28.609321 -07 24 51.40192
 2018-Nov-28 13:39  m  23 00 28.610231 -07 24 51.39952
 2018-Nov-28 13:40  m  23 00 28.611141 -07 24 51.39714
 2018-Nov-28 13:41  m  23 00 28.612052 -07 24 51.39476
 2018-Nov-28 13:42  m  23 00 28.612963 -07 24 51.39239
 2018-Nov-28 13:43  m  23 00 28.613874 -07 24 51.39003
 2018-Nov-28 13:44  m  23 00 28.614785 -07 24 51.38768
 2018-Nov-28 13:45  m  23 00 28.615696 -07 24 51.38533
 2018-Nov-28 13:46  m  23 00 28.616607 -07 24 51.38300
 2018-Nov-28 13:47  m  23 00 28.617518 -07 24 51.38067
 2018-Nov-28 13:48  m  23 00 28.618429 -07 24 51.37835
 2018-Nov-28 13:49  m  23 00 28.619341 -07 24 51.37604
 2018-Nov-28 13:50  m  23 00 28.620253 -07 24 51.37373
 2018-Nov-28 13:51  m  23 00 28.621164 -07 24 51.37144
 2018-Nov-28 13:52  m  23 00 28.622076 -07 24 51.36915
 2018-Nov-28 13:53  m  23 00 28.622988 -07 24 51.36687
 2018-Nov-28 13:54  m  23 00 28.623900 -07 24 51.36460
 2018-Nov-28 13:55  m  23 00 28.624812 -07 24 51.36234
 2018-Nov-28 13:56  m  23 00 28.625724 -07 24 51.36008
 2018-Nov-28 13:57  m  23 00 28.626637 -07 24 51.35784
 2018-Nov-28 13:58  m  23 00 28.627549 -07 24 51.35560
 2018-Nov-28 13:59  m  23 00 28.628462 -07 24 51.35337
 2018-Nov-28 14:00  m  23 00 28.629374 -07 24 51.35115
 2018-Nov-28 14:01  m  23 00 28.630287 -07 24 51.34894
 2018-Nov-28 14:02  m  23 00 28.631200 -07 24 51.34673
 2018-Nov-28 14:03  m  23 00 28.632112 -07 24 51.34453
 2018-Nov-28 14:04  m  23 00 28.633025 -07 24 51.34234
 2018-Nov-28 14:05  m  23 00 28.633938 -07 24 51.34016
 2018-Nov-28 14:06  m  23 00 28.634851 -07 24 51.33799
 2018-Nov-28 14:07  m  23 00 28.635765 -07 24 51.33583
 2018-Nov-28 14:08  m  23 00 28.636678 -07 24 51.33367
 2018-Nov-28 14:09  m  23 00 28.637591 -07 24 51.33153
 2018-Nov-28 14:10  m  23 00 28.638505 -07 24 51.32939
 2018-Nov-28 14:11  m  23 00 28.639418 -07 24 51.32726
 2018-Nov-28 14:12  m  23 00 28.640332 -07 24 51.32513
 2018-Nov-28 14:13  m  23 00 28.641245 -07 24 51.32302
 2018-Nov-28 14:14  m  23 00 28.642159 -07 24 51.32091
 2018-Nov-28 14:15  m  23 00 28.643073 -07 24 51.31881
 2018-Nov-28 14:16  m  23 00 28.643987 -07 24 51.31673
 2018-Nov-28 14:17  m  23 00 28.644901 -07 24 51.31464
 2018-Nov-28 14:18  m  23 00 28.645815 -07 24 51.31257
 2018-Nov-28 14:19  m  23 00 28.646729 -07 24 51.31051
 2018-Nov-28 14:20  m  23 00 28.647643 -07 24 51.30845
 2018-Nov-28 14:21  m  23 00 28.648557 -07 24 51.30640
 2018-Nov-28 14:22  m  23 00 28.649471 -07 24 51.30436
 2018-Nov-28 14:23  m  23 00 28.650385 -07 24 51.30233
 2018-Nov-28 14:24  m  23 00 28.651300 -07 24 51.30031
 2018-Nov-28 14:25  m  23 00 28.652214 -07 24 51.29829
 2018-Nov-28 14:26  m  23 00 28.653128 -07 24 51.29628
 2018-Nov-28 14:27  m  23 00 28.654043 -07 24 51.29428
 2018-Nov-28 14:28  m  23 00 28.654957 -07 24 51.29229
 2018-Nov-28 14:29  m  23 00 28.655872 -07 24 51.29031
 2018-Nov-28 14:30  m  23 00 28.656787 -07 24 51.28834
 2018-Nov-28 14:31  m  23 00 28.657701 -07 24 51.28637
 2018-Nov-28 14:32  m  23 00 28.658616 -07 24 51.28441
 2018-Nov-28 14:33  m  23 00 28.659531 -07 24 51.28247
 2018-Nov-28 14:34  m  23 00 28.660446 -07 24 51.28052
 2018-Nov-28 14:35  m  23 00 28.661360 -07 24 51.27859
 2018-Nov-28 14:36  m  23 00 28.662275 -07 24 51.27667
 2018-Nov-28 14:37  m  23 00 28.663190 -07 24 51.27475
 2018-Nov-28 14:38  m  23 00 28.664105 -07 24 51.27284
 2018-Nov-28 14:39  m  23 00 28.665020 -07 24 51.27094
 2018-Nov-28 14:40  m  23 00 28.665935 -07 24 51.26905
 2018-Nov-28 14:41  m  23 00 28.666850 -07 24 51.26717
 2018-Nov-28 14:42  m  23 00 28.667765 -07 24 51.26530
 2018-Nov-28 14:43  m  23 00 28.668680 -07 24 51.26343
 2018-Nov-28 14:44  m  23 00 28.669595 -07 24 51.26157
 2018-Nov-28 14:45  m  23 00 28.670511 -07 24 51.25972
 2018-Nov-28 14:46  m  23 00 28.671426 -07 24 51.25788
 2018-Nov-28 14:47  m  23 00 28.672341 -07 24 51.25605
 2018-Nov-28 14:48  m  23 00 28.673256 -07 24 51.25422
 2018-Nov-28 14:49  m  23 00 28.674171 -07 24 51.25240
 2018-Nov-28 14:50  m  23 00 28.675087 -07 24 51.25060
 2018-Nov-28 14:51  m  23 00 28.676002 -07 24 51.24880
 2018-Nov-28 14:52  m  23 00 28.676917 -07 24 51.24700
 2018-Nov-28 14:53  m  23 00 28.677832 -07 24 51.24522
 2018-Nov-28 14:54  m  23 00 28.678747 -07 24 51.24345
 2018-Nov-28 14:55  m  23 00 28.679663 -07 24 51.24168
 2018-Nov-28 14:56  m  23 00 28.680578 -07 24 51.23992
 2018-Nov-28 14:57  m  23 00 28.681493 -07 24 51.23817
 2018-Nov-28 14:58  m  23 00 28.682409 -07 24 51.23643
 2018-Nov-28 14:59  m  23 00 28.683324 -07 24 51.23469
 2018-Nov-28 15:00  m  23 00 28.684239 -07 24 51.23297
 2018-Nov-28 15:01  m  23 00 28.685154 -07 24 51.23125
 2018-Nov-28 15:02  m  23 00 28.686070 -07 24 51.22954
 2018-Nov-28 15:03  m  23 00 28.686985 -07 24 51.22784
 2018-Nov-28 15:04  m  23 00 28.687900 -07 24 51.22615
 2018-Nov-28 15:05  m  23 00 28.688815 -07 24 51.22447
 2018-Nov-28 15:06  m  23 00 28.689731 -07 24 51.22279
 2018-Nov-28 15:07  m  23 00 28.690646 -07 24 51.22112
 2018-Nov-28 15:08  m  23 00 28.691561 -07 24 51.21946
 2018-Nov-28 15:09  m  23 00 28.692476 -07 24 51.21781
 2018-Nov-28 15:10  m  23 00 28.693391 -07 24 51.21617
 2018-Nov-28 15:11  m  23 00 28.694306 -07 24 51.21454
 2018-Nov-28 15:12  m  23 00 28.695221 -07 24 51.21291
 2018-Nov-28 15:13  m  23 00 28.696137 -07 24 51.21129
 2018-Nov-28 15:14  m  23 00 28.697052 -07 24 51.20968
 2018-Nov-28 15:15  m  23 00 28.697967 -07 24 51.20808
 2018-Nov-28 15:16  m  23 00 28.698882 -07 24 51.20649
 2018-Nov-28 15:17  m  23 00 28.699797 -07 24 51.20491
 2018-Nov-28 15:18  m  23 00 28.700711 -07 24 51.20333
 2018-Nov-28 15:19  m  23 00 28.701626 -07 24 51.20176
 2018-Nov-28 15:20  m  23 00 28.702541 -07 24 51.20020
 2018-Nov-28 15:21 Am  23 00 28.703456 -07 24 51.19865
 2018-Nov-28 15:22 Am  23 00 28.704371 -07 24 51.19711
 2018-Nov-28 15:23 Am  23 00 28.705286 -07 24 51.19557
 2018-Nov-28 15:24 Am  23 00 28.706200 -07 24 51.19405
 2018-Nov-28 15:25 Am  23 00 28.707115 -07 24 51.19253
 2018-Nov-28 15:26 Am  23 00 28.708029 -07 24 51.19102
 2018-Nov-28 15:27 Am  23 00 28.708944 -07 24 51.18952
 2018-Nov-28 15:28 Am  23 00 28.709859 -07 24 51.18803
 2018-Nov-28 15:29 Am  23 00 28.710773 -07 24 51.18654
 2018-Nov-28 15:30 Am  23 00 28.711687 -07 24 51.18507
